#aV2012 12 20  0  0  0.00000000     288 DD+AD WGS84 FIT  NGA
## 1719 345600.00000000   300.00000000 56281 0.0000000000000
+   31     1  2  3  4  5  6  7  8  9 10 11 12 13 14 15 16 17
+         18 19 20 21 22 23 24 25 26 28 29 30 31 32  0  0  0
+          0  0  0  0  0  0  0  0  0  0  0  0  0  0  0  0  0
+          0  0  0  0  0  0  0  0  0  0  0  0  0  0  0  0  0
+          0  0  0  0  0  0  0  0  0  0  0  0  0  0  0  0  0
++         2  2  2  2  2  2  2  2  2  2  2  2  2  2  2  2  2
++         2  2  2  2  2  2  2  2  2  2  2  2  2  2  2  0  0
++         0  0  0  0  0  0  0  0  0  0  0  0  0  0  0  0  0
++         0  0  0  0  0  0  0  0  0  0  0  0  0  0  0  0  0
++         0  0  0  0  0  0  0  0  0  0  0  0  0  0  0  0  0
%c cc cc ccc ccc cccc cccc cccc cccc ccccc ccccc ccccc ccccc
%c cc cc ccc ccc cccc cccc cccc cccc ccccc ccccc ccccc ccccc
%f  0.0000000  0.000000000  0.00000000000  0.000000000000000
%f  0.0000000  0.000000000  0.00000000000  0.000000000000000
%i    0    0    0    0      0      0      0      0         0
%i    0    0    0    0      0      0      0      0         0
/*      NGA, ST. LOUIS,MO.                                  
/*   EPHEMERIS COMPUTED FROM  1 DAYS OF DATA
/*   EPOCHA SMOOTHER  
/* CCCCCCCCCCCCCCCCCCCCCCCCCCCCCCCCCCCCCCCCCCCCCCCCCCCCCCCCC
*  2012 12 20 15 15  0.00000000                                                 
P  1  22174.268619  14307.843522  -3322.525744    288.566414                    
V  1  -4990.378726    499.442116 -31318.606816      0.021053                    
P  2  -5482.400367 -18244.536379  18867.112559    412.133308                    
V  2  21636.695405   9336.668795  14936.236777      0.009987                    
P  3   -116.878674  18739.736952 -19238.360951    144.147214                    
V  3 -19096.012761  13900.283239  14260.255147      0.050461                    
P  4  11064.730822 -11569.550107  20948.129176     80.782761                    
V  4  23950.801267  13108.897955  -5048.905227      0.111391                    
P  5  -3246.712122 -26105.103296  -3085.574393   -373.914859                    
V  5   3108.552466  -4029.925067  31272.286874     -0.022513                    
P  6  -7450.828548  19664.673785 -15927.500011    417.741819                    
V  6 -18223.721801   9932.249897  20991.525835     -0.131562                    
P  7  23866.630436   4674.213278 -10969.237867    159.296653                    
V  7  11261.776437   8303.561375  27656.239123      0.044182                    
P  8  17714.802655  -3334.727005 -19614.427441      3.589640                    
V  8  20343.463262  14266.204111  15298.426584      0.001744                    
P  9 -15565.612023 -17658.238420 -12772.305121    207.979829                    
V  9  14347.195638   5662.968186 -26496.020006      0.026570                    
P 10   9309.813948 -20541.501358  13413.217392    -62.937749                    
V 10   3309.715291  17639.117158  24621.715223     -0.015296                    
P 11  19886.800383  13749.560663 -11734.208647   -335.180975                    
V 11 -14840.902216    937.293371 -24677.666918     -0.039066                    
P 12 -11557.378904 -16813.959468  17092.768988    107.896341                    
V 12   1044.612778 -21623.686257 -20352.495675      0.020342                    
P 13  23415.051665  -2638.456498  12229.176028    158.736549                    
V 13 -13242.473436   8542.673772  26791.693316     -0.028740                    
P 14 -21602.772908  14798.574622   4162.851908    218.525468                    
V 14  -5577.821879    295.451975 -31609.488029      0.005290                    
P 15 -10511.553993 -11686.693899 -21437.368370   -102.749005                    
V 15  22575.877558 -15241.662664  -2518.020892     -0.010718                    
P 16   1567.203476  26195.451083  -2715.012509   -251.017340                    
V 16  -2397.026606   3442.361475  32214.449694     -0.004107                    
P 17  20492.940016 -15940.691729   5136.485921     67.588676                    
V 17   6877.180408   -725.583223 -31098.627923     -0.036328                    
P 18 -15359.504595   4752.260541 -20721.054339    230.330080                    
V 18  -1751.053721 -27325.917448  -5229.716257      0.018529                    
P 19   7031.766549  13509.991480 -21834.909106   -332.616144                    
V 19 -24620.430185  12346.400292    106.546623     -0.033752                    
P 20  13907.805462  15032.768751  16778.376624     77.102842                    
V 20   -440.795708  21829.885955 -18924.386132      0.013020                    
P 21 -23088.382075  -1288.324997 -13012.493451   -269.517149                    
V 21 -13950.606029 -10488.534450  24245.600742     -0.023429                    
P 22 -11046.027837  18358.454046 -15431.287104    153.762068                    
V 22  -3427.841514 -19985.173926 -21201.579428      0.008628                    
P 23  17197.867120   5654.066616  19619.774756    132.156827                    
V 23 -20499.305930  13774.476149  13665.256060     -0.038147                    
P 24 -20222.188992 -15837.636701  -6794.035261      2.024182                    
V 24   8910.435451   1557.252014 -30121.236217     -0.007184                    
P 25 -14949.454384  -3767.778237  21599.367777     57.600779                    
V 25   -865.147306 -27459.300536  -5306.512962      0.022801                    
P 26   2750.229702 -16990.284925 -20755.569512   -168.125987                    
V 26  22665.577106 -10584.852069  12382.112674      0.135606                    
P 28  12123.694829 -14757.595075 -17790.485634    215.755885                    
V 28   1147.806343  23813.869509 -18582.744721      0.036297                    
P 29 -22779.909004   2135.854882  13510.222516    389.428721                    
V 29  13817.436842 -10254.199656  25050.737645      0.039145                    
P 30  -2522.934174  24918.243109   8518.519236   -278.339485                    
V 30  -4147.372469 -10829.909467  29225.561704      0.122953                    
P 31  -6562.587759  13354.503281  22187.864167    293.290005                    
V 31 -24253.822403 -13287.552184   1086.595837      0.019926                    
P 32   7455.016410  22859.877102  11990.476883   -518.638094                    
V 32  -2939.594837  14686.154925 -26018.697898     -0.034463                    
EOF
